STARLINK-1407           
1 45703U 20035AY  22014.68714116  .00001835  00000+0  14209-3 0  9997
2 45703  53.0569 357.7408 0002183  50.7257 309.3925 15.06402653 90803
STARLINK-1409           
1 45704U 20035AZ  22014.31484068  .00002827  00000+0  20857-3 0  9996
2 45704  53.0600  29.3816 0001457  64.6679 295.4461 15.06400401 90337
STARLINK-1410           
1 45705U 20035BA  22014.73967149  .00000223  00000+0  33846-4 0  9990
2 45705  53.0550  27.4994 0001455  66.4445 293.6697 15.06390970 90382
STARLINK-1411           
1 45706U 20035BB  22014.66502487  .00000863  00000+0  76861-4 0  9997
2 45706  53.0557 357.8267 0001656  67.9034 292.2131 15.06397105 90796
STARLINK-1412           
1 45707U 20035BC  22014.66133683  .00003274  00000+0  23857-3 0  9991
2 45707  53.0560 357.8483 0001679  71.5837 288.5335 15.06401887 90807
STARLINK-1418           
1 45708U 20035BD  22014.23745475  .00000705  00000+0  66218-4 0  9998
2 45708  53.0550 359.7503 0001620  66.9974 293.1186 15.06399873 90747
STARLINK-1421           
1 45709U 20035BE  22015.13681380  .00003152  00000+0  23037-3 0  9993
2 45709  53.0572 355.7065 0001673  69.3846 290.7322 15.06408274 90464
STARLINK-1423           
1 45710U 20035BF  22015.13312988  .00001916  00000+0  14747-3 0  9994
2 45710  53.0548 355.7256 0001623  60.6482 299.4668 15.06405599 90462
STARLINK-1433           
1 45711U 20035BG  22014.65028573  .00000492  00000+0  51955-4 0  9996
2 45711  53.0556 357.9004 0001845  62.5843 297.5334 15.06391353 90792
STARLINK-1434           
1 45712U 20035BH  22015.11101678  .00000583  00000+0  58019-4 0  9996
2 45712  53.0563 355.8337 0001485  74.3808 285.7345 15.06396237 90460
STARLINK-1436           
1 45713U 20035BJ  22014.73321208  .00002319  00000+0  17456-3 0  9995
2 45713  53.0548  17.5259 0001670  67.9789 292.1377 15.06399033 90128
STARLINK-1437           
1 45714U 20035BK  22014.65764585  .00001166  00000+0  97172-4 0  9999
2 45714  53.0555 357.8689 0001619  69.5090 290.6073 15.06408029 90807
STARLINK-1439           
1 45716U 20035BM  22014.71213655  .00056951  00000+0  29871-3 0  9997
2 45716  52.9969 174.6342 0004671 207.8440 152.2331 15.80223767 93353
HAIYANG-1D              
1 45721U 20036A   22015.09774442  .00000061  00000+0  37314-4 0  9995
2 45721  98.5026 315.8557 0011656 339.4781  20.5936 14.34308752 83620
ANDESITE                
1 45726U 20037D   22015.04906623  .00000726  00000+0  76363-4 0  9999
2 45726  97.7281 194.6643 0014500 164.8031 195.3658 14.92374317 84006
M2 PATHFINDER           
1 45727U 20037E   22014.74992133  .00000066  00000+0  12093-4 0  9994
2 45727  97.7194 193.1582 0012405 181.0535 179.0678 14.91579076 83916
STARLINK-1461           
1 45730U 20038A   22014.93410682 -.00001322  00000+0 -69834-4 0  9997
2 45730  53.0553 196.6078 0002286  88.9220 271.2030 15.06393721 89005
STARLINK-1465           
1 45731U 20038B   22014.81617453  .00000895  00000+0  78992-4 0  9997
2 45731  53.0536 197.1556 0002446  76.0462 284.0799 15.06403449 87863
STARLINK-1466           
1 45732U 20038C   22014.80510304  .00000709  00000+0  66527-4 0  9999
2 45732  53.0539 197.1967 0002164  76.6765 283.4465 15.06406073 87861
STARLINK-1467           
1 45733U 20038D   22014.81248148  .00000651  00000+0  62664-4 0  9999
2 45733  53.0544 197.1775 0002377  69.0744 291.0499 15.06390642 87860
STARLINK-1468           
1 45734U 20038E   22014.79405021  .00001562  00000+0  12377-3 0  9999
2 45734  53.0532 197.2402 0002303  72.5016 287.6224 15.06401336 87866
STARLINK-1471           
1 45735U 20038F   22014.76456518  .00000891  00000+0  78763-4 0  9990
2 45735  53.0540 197.3856 0002585  73.7026 286.4247 15.06390136 87852
STARLINK-1472           
1 45736U 20038G   22014.99699470  .00135419  00000+0  78973-2 0  9998
2 45736  53.0532 196.2202 0001854  42.7353 317.3782 15.10933711 89019
STARLINK-1474           
1 45738U 20038J   22014.81985123  .00000465  00000+0  50130-4 0  9993
2 45738  53.0537 197.1270 0002314  82.4072 277.7179 15.06390820 87865
STARLINK-1475           
1 45739U 20038K   22014.70189266  .00000622  00000+0  60668-4 0  9998
2 45739  53.0543 157.6598 0002067  87.6287 272.4939 15.06405946 88400
STARLINK-1479           
1 45740U 20038L   22014.95990191  .00000965  00000+0  83686-4 0  9999
2 45740  53.0536 196.5117 0002288  78.3784 281.7462 15.06411925 89002
STARLINK-1480           
1 45741U 20038M   22014.79773408  .00001062  00000+0  90213-4 0  9995
2 45741  53.0539 197.2422 0002300  75.4208 284.7036 15.06400819 87870
STARLINK-1481           
1 45742U 20038N   22014.79035462  .00000796  00000+0  72319-4 0  9997
2 45742  53.0533 197.2621 0002252  75.0008 285.1230 15.06406243 87852
STARLINK-1483           
1 45743U 20038P   22014.81590002  .00000652  00000+0  61497-4 0  9993
2 45743  53.0544 197.0746 0001837  60.6701 299.4472 15.07206980 87863
STARLINK-1500           
1 45744U 20038Q   22014.77929814  .00001161  00000+0  96844-4 0  9996
2 45744  53.0520 197.3195 0002254  77.9924 282.1318 15.06406643 87866
STARLINK-1503           
1 45745U 20038R   22014.76823835  .00001084  00000+0  91718-4 0  9991
2 45745  53.0542 197.3741 0002283  75.4744 284.6498 15.06397289 87853
STARLINK-1504           
1 45746U 20038S   22014.78299247  .00000642  00000+0  62022-4 0  9993
2 45746  53.0523 197.2947 0001790  77.1163 283.0026 15.06390319 87853
STARLINK-1506           
1 45747U 20038T   22014.78666811  .00000050  00000+0  22289-4 0  9993
2 45747  53.0540 197.2829 0002256  71.5013 288.6221 15.06391294 87864
STARLINK-1507           
1 45748U 20038U   22014.77466514 -.00001152  00000+0 -58421-4 0  9994
2 45748  53.0508 197.3575 0002126  77.8109 282.3118 15.06397525 87857
STARLINK-1391           
1 45750U 20038W   22014.80325390  .00001665  00000+0  13062-3 0  9995
2 45750  53.0535 177.2160 0002602  77.7483 282.3797 15.06409926 89269
STARLINK-1464           
1 45751U 20038X   22014.73322576  .00001904  00000+0  14666-3 0  9998
2 45751  53.0548 177.5165 0001955  81.5419 278.5792 15.06410530 88145
STARLINK-1469           
1 45752U 20038Y   22015.06384236  .00088886  00000+0  43933-3 0  9990
2 45752  53.0063 302.7397 0005605 113.7182 246.4427 15.81335450 92535
STARLINK-1476           
1 45753U 20038Z   22014.87696886 -.00000388  00000+0 -71451-5 0  9997
2 45753  53.0543 176.8846 0001991  80.0613 280.0600 15.06399572 89273
STARLINK-1477           
1 45754U 20038AA  22014.88065714 -.00000203  00000+0  53145-5 0  9994
2 45754  53.0535 176.8648 0001954  80.3646 279.7563 15.06400928 88161
STARLINK-1478           
1 45755U 20038AB  22014.76639271 -.00000617  00000+0 -22513-4 0  9991
2 45755  53.0540 177.3831 0002064  83.3856 276.7367 15.06398787 88132
STARLINK-1484           
1 45756U 20038AC  22014.76271394  .00001839  00000+0  14229-3 0  9999
2 45756  53.0543 177.3944 0001922  79.8726 280.2480 15.06410469 88137
STARLINK-1486           
1 45757U 20038AD  22014.91383017  .00000687  00000+0  65032-4 0  9992
2 45757  53.0535 176.7154 0002034  85.3017 274.8204 15.06408413 89270
STARLINK-1487           
1 45758U 20038AE  22014.77375926  .00001519  00000+0  12080-3 0  9996
2 45758  53.0537 177.3412 0002169  81.7754 278.3481 15.06413822 88134
STARLINK-1493           
1 45759U 20038AF  22014.95437370  .00002348  00000+0  17641-3 0  9998
2 45759  53.0530 176.5285 0002054  81.5576 278.5645 15.06416041 89096
STARLINK-1494           
1 45760U 20038AG  22014.75902272  .00001026  00000+0  87799-4 0  9990
2 45760  53.0547 177.4185 0002166  76.0419 284.0811 15.06395530 88145
STARLINK-1495           
1 45761U 20038AH  22014.58772067  .00015529  00000+0  21986-3 0  9997
2 45761  53.0535 132.2278 0002862  49.0926 311.0332 15.56717378 88772
STARLINK-1499           
1 45762U 20038AJ  22014.72953093  .00000446  00000+0  48859-4 0  9995
2 45762  53.0538 177.5450 0002156  81.9852 278.1381 15.06406531 88148
STARLINK-1501           
1 45763U 20038AK  22014.68690189  .00002734  00000+0  20695-4 0  9995
2 45763  53.0518  87.2191 0003170  18.8739 341.2398 15.76754238 89593
STARLINK-1502           
1 45764U 20038AL  22014.78851280  .00001250  00000+0  10282-3 0  9990
2 45764  53.0554 177.2644 0001909  81.9646 278.1559 15.06397755 89073
STARLINK-1509           
1 45766U 20038AN  22014.91014389  .00001090  00000+0  92082-4 0  9999
2 45766  53.0529 176.7348 0002209  79.0620 281.0617 15.06409919 89081
STARLINK-1511           
1 45767U 20038AP  22014.77008242  .00001606  00000+0  12664-3 0  9995
2 45767  53.0542 177.3623 0002047  78.2143 281.9076 15.06411832 88131
STARLINK-1521           
1 45768U 20038AQ  22014.88434245  .00001735  00000+0  13534-3 0  9994
2 45768  53.0547 176.8567 0002211  83.0790 277.0451 15.06401572 88169
STARLINK-1459           
1 45769U 20038AR  22014.97464986 -.00000471  00000+0 -12696-4 0  9997
2 45769  53.0548 196.4443 0002304  81.4285 278.6965 15.06400533 89003
STARLINK-1462           
1 45770U 20038AS  22014.71199273  .00001680  00000+0  13167-3 0  9999
2 45770  53.0528 157.6201 0002042  86.7177 273.4046 15.06402889 88403
STARLINK-1463           
1 45771U 20038AT  22014.70557023  .00000004  00000+0  19165-4 0  9994
2 45771  53.0546 157.6540 0002066  93.6205 266.5020 15.06406901 88409
STARLINK-1470           
1 45772U 20038AU  22014.82720491  .00000351  00000+0  42500-4 0  9993
2 45772  53.0531 157.1048 0002081  93.1543 266.9684 15.06410454 88430
STARLINK-1482           
1 45773U 20038AV  22014.75348324 -.00000197  00000+0  56658-5 0  9996
2 45773  53.0545 157.4342 0001814  83.4294 276.6902 15.06407662 88421
STARLINK-1485           
1 45774U 20038AW  22014.72399882  .00000418  00000+0  46983-4 0  9993
2 45774  53.0549 157.5553 0001842 108.0444 252.0745 15.06398484 88416
STARLINK-1488           
1 45775U 20038AX  22014.66133523  .00002086  00000+0  15887-3 0  9996
2 45775  53.0542 157.8473 0002066  86.6458 273.4767 15.06406360 88413
